*******************************************************************************
JPL/HORIZONS               2827 Vellamo (1942 CC)          2023-Sep-04 11:20:09
Rec #:    2827 (+COV) Soln.date: 2023-Aug-23_02:41:28   # obs: 5541 (1928-2023)
 
IAU76/J2000 helio. ecliptic osc. elements (au, days, deg., period=Julian yrs):
 
  EPOCH=  2457808.5 ! 2017-Feb-24.00 (TDB)         Residual RMS= .25183
   EC= .03073628997183503  QR= 2.23778260214877    TP= 2457489.7580893128
   OM= 345.5146023140696   W=  204.9654363395852   IN= 8.622853082297706
   A= 2.308744853434928    MA= 89.55283419118426   ADIST= 2.379707104721086
   PER= 3.5081             N= .280957198           ANGMOM= .026125474
   DAN= 2.37268            DDN= 2.24404            L= 190.2317334
   B= -3.6281613           MOID= 1.2421            TP= 2016-Apr-11.2580893128
 
Asteroid physical parameters (km, seconds, rotational period in hours):
   GM= n.a.                RAD= 4.6505             ROTPER= 3.7386
   H= 12.27                G= .150                 B-V= n.a.
                           ALBEDO= .324            STYP= S

ASTEROID comments: 
1: soln ref.= JPL#90, OCC=0
2: source=ORB
*******************************************************************************


*******************************************************************************
Ephemeris / API_USER Mon Sep  4 11:20:09 2023 Pasadena, USA      / Horizons
*******************************************************************************
Target body name: 2827 Vellamo (1942 CC)          {source: JPL#90}
Center body name: Solar System Barycenter (0)     {source: DE441}
Center-site name: BODY CENTER
*******************************************************************************
Start time      : A.D. 2023-Aug-12 00:00:00.0000 TDB
Stop  time      : A.D. 2023-Aug-13 00:00:00.0000 TDB
Step-size       : 2880 minutes
*******************************************************************************
Center geodetic : 0.0, 0.0, 0.0                   {E-lon(deg),Lat(deg),Alt(km)}
Center cylindric: 0.0, 0.0, 0.0                   {E-lon(deg),Dxy(km),Dz(km)}
Center radii    : (undefined)
Small perturbers: Yes                             {source: SB441-N16}
Output units    : KM-S
Calendar mode   : Mixed Julian/Gregorian
Output type     : GEOMETRIC cartesian states
Output format   : 2 (position and velocity)
Reference frame : Ecliptic of J2000.0
*******************************************************************************
Initial IAU76/J2000 heliocentric ecliptic osculating elements (au, days, deg.):
  EPOCH=  2457808.5 ! 2017-Feb-24.00 (TDB)         Residual RMS= .25183        
   EC= .03073628997183503  QR= 2.23778260214877    TP= 2457489.7580893128      
   OM= 345.5146023140696   W=  204.9654363395852   IN= 8.622853082297706       
  Equivalent ICRF heliocentric cartesian coordinates (au, au/d):
   X= 5.472172574065380E-01  Y=-1.918601026151401E+00  Z=-1.165049145772725E+00
  VX= 1.106030166716104E-02 VY= 1.772335220542148E-03 VZ= 1.586898844893423E-03
Asteroid physical parameters (km, seconds, rotational period in hours):        
   GM= n.a.                RAD= 4.6505             ROTPER= 3.7386              
   H= 12.27                G= .150                 B-V= n.a.                   
                           ALBEDO= .324            STYP= S                     
*******************************************************************************
JDTDB
   X     Y     Z
   VX    VY    VZ
*******************************************************************************
$$SOE
2460168.500000000 = A.D. 2023-Aug-12 00:00:00.0000 TDB 
 X =-2.387512398748453E+08 Y =-2.342910494152913E+08 Z =-4.337395491917045E+07
 VX= 1.399162760784399E+01 VY=-1.440768536871753E+01 VZ=-1.581072783224703E+00
$$EOE
*******************************************************************************
 
TIME

  Barycentric Dynamical Time ("TDB" or T_eph) output was requested. This
continuous coordinate time is equivalent to the relativistic proper time
of a clock at rest in a reference frame co-moving with the solar system
barycenter but outside the system's gravity well. It is the independent
variable in the solar system relativistic equations of motion.

  TDB runs at a uniform rate of one SI second per second and is independent
of irregularities in Earth's rotation.
 
CALENDAR SYSTEM

  Mixed calendar mode was active such that calendar dates after AD 1582-Oct-15
(if any) are in the modern Gregorian system. Dates prior to 1582-Oct-5 (if any)
are in the Julian calendar system, which is automatically extended for dates
prior to its adoption on 45-Jan-1 BC.  The Julian calendar is useful for
matching historical dates. The Gregorian calendar more accurately corresponds
to the Earth's orbital motion and seasons. A "Gregorian-only" calendar mode is
available if such physical events are the primary interest.

REFERENCE FRAME AND COORDINATES

  Ecliptic at the standard reference epoch

    Reference epoch: J2000.0
    X-Y plane: adopted Earth orbital plane at the reference epoch
               Note: IAU76 obliquity of 84381.448 arcseconds wrt ICRF X-Y plane
    X-axis   : ICRF
    Z-axis   : perpendicular to the X-Y plane in the directional (+ or -) sense
               of Earth's north pole at the reference epoch.

  Symbol meaning:

    JDTDB    Julian Day Number, Barycentric Dynamical Time
      X      X-component of position vector (km)
      Y      Y-component of position vector (km)
      Z      Z-component of position vector (km)
      VX     X-component of velocity vector (km/sec)                           
      VY     Y-component of velocity vector (km/sec)                           
      VZ     Z-component of velocity vector (km/sec)                           

ABERRATIONS AND CORRECTIONS

 Geometric state vectors have NO corrections or aberrations applied.

Computations by ...

    Solar System Dynamics Group, Horizons On-Line Ephemeris System
    4800 Oak Grove Drive, Jet Propulsion Laboratory
    Pasadena, CA  91109   USA

    General site: https://ssd.jpl.nasa.gov/
    Mailing list: https://ssd.jpl.nasa.gov/email_list.html
    System news : https://ssd.jpl.nasa.gov/horizons/news.html
    User Guide  : https://ssd.jpl.nasa.gov/horizons/manual.html
    Connect     : browser        https://ssd.jpl.nasa.gov/horizons/app.html#/x
                  API            https://ssd-api.jpl.nasa.gov/doc/horizons.html
                  command-line   telnet ssd.jpl.nasa.gov 6775
                  e-mail/batch   https://ssd.jpl.nasa.gov/ftp/ssd/hrzn_batch.txt
                  scripts        https://ssd.jpl.nasa.gov/ftp/ssd/SCRIPTS
    Author      : Jon.D.Giorgini@jpl.nasa.gov
*******************************************************************************
